GSAT0101 (PRN E11)      
1 37846U 11060A   23193.91762376 -.00000093  00000+0  00000+0 0  9996
2 37846  57.1012  10.7427 0003450  58.5841 301.4704  1.70476042 73000
GSAT0102 (PRN E12)      
1 37847U 11060B   23194.13591222 -.00000094  00000+0  00000+0 0  9993
2 37847  57.1028  10.7367 0002609  21.5621 158.8496  1.70475402 73003
GSAT0103 (PRN E19)      
1 38857U 12055A   23194.54307837 -.00000024  00000+0  00000+0 0  9995
2 38857  55.2658 130.9452 0004722 274.5057  85.3977  1.70473689 66919
GSAT0104 (PRN E20)      
1 38858U 12055B   23193.33947687 -.00000016  00000+0  00000+0 0  9996
2 38858  55.2651 130.9797 0001523 280.1352  79.8091  1.70473792 66866
GSAT0201 (PRN E18)      
1 40128U 14050A   23192.90447538 -.00000127  00000+0  00000+0 0  9991
2 40128  49.9849 316.7441 1611098 138.3030 235.1901  1.85519087 60382
GSAT0202 (PRN E14)      
1 40129U 14050B   23192.62505783 -.00000126  00000+0  00000+0 0  9997
2 40129  50.0051 315.8256 1608839 139.0987 234.1795  1.85519819 60577
GSAT0203 (PRN E26)      
1 40544U 15017A   23194.87033712 -.00000095  00000+0  00000+0 0  9994
2 40544  56.8968  10.6970 0001314 223.7232 136.2862  1.70476069 51637
GSAT0204 (PRN E22)      
1 40545U 15017B   23193.95065975 -.00000094  00000+0  00000+0 0  9998
2 40545  56.9026  10.7359 0001776 189.9840 170.0332  1.70475670 51620
GSAT0205 (PRN E24)      
1 40889U 15045A   23190.19911263  .00000010  00000+0  00000+0 0  9990
2 40889  55.3907 251.2770 0003031   9.6505 350.4321  1.70473823 48708
GSAT0206 (PRN E30)      
1 40890U 15045B   23190.41980851  .00000010  00000+0  00000+0 0  9996
2 40890  55.3899 251.2666 0001793 327.5459  32.5192  1.70473565 48737
GSAT0209 (PRN E09)      
1 41174U 15079A   23193.52426034 -.00000018  00000+0  00000+0 0  9991
2 41174  55.2827 130.6796 0004654 314.0759  45.8467  1.70473981 47104
GSAT0208 (PRN E08)      
1 41175U 15079B   23194.33042328 -.00000023  00000+0  00000+0 0  9998
2 41175  55.2815 130.6556 0004065 312.4732  47.4506  1.70473990 47118
GSAT0211 (PRN E02)      
1 41549U 16030A   23193.27841107  .00000022  00000+0  00000+0 0  9993
2 41549  55.5356 251.1617 0004062 299.1699  60.8698  1.70473668 44393
GSAT0210 (PRN E01)      
1 41550U 16030B   23194.74314438  .00000030  00000+0  00000+0 0  9999
2 41550  55.5347 251.1227 0002544 265.0991  94.9596  1.70473979 44415
GSAT0207 (PRN E07)      
1 41859U 16069A   23194.40472308 -.00000024  00000+0  00000+0 0  9991
2 41859  54.9457 130.7403 0004801 300.9690  58.9416  1.70473944 41389
GSAT0212 (PRN E03)      
1 41860U 16069B   23191.32655466  .00000002  00000+0  00000+0 0  9994
2 41860  54.9425 130.8227 0003601 324.9857  34.9593  1.70474028 41361
GSAT0213 (PRN E04)      
1 41861U 16069C   23193.45193438 -.00000017  00000+0  00000+0 0  9994
2 41861  54.9453 130.7696 0004734 281.0835  78.8244  1.70472868 41392
GSAT0214 (PRN E05)      
1 41862U 16069D   23193.01254510 -.00000013  00000+0  00000+0 0  9992
2 41862  54.9435 130.7758 0003631 287.4208  72.5023  1.70472686 41384
GSAT0215 (PRN E21)      
1 43055U 17079A   23195.26176694  .00000032  00000+0  00000+0 0  9995
2 43055  55.5108 250.9339 0003323 261.4882  98.5646  1.70474613 34767
GSAT0216 (PRN E25)      
1 43056U 17079B   23193.79396524  .00000025  00000+0  00000+0 0  9990
2 43056  55.5120 250.9743 0004481 268.9062  91.1253  1.70474749 34728
GSAT0217 (PRN E27)      
1 43057U 17079C   23194.60089449  .00000029  00000+0  00000+0 0  9991
2 43057  55.5091 250.9511 0005163 278.4997  81.5289  1.70474214 34752
GSAT0218 (PRN E31)      
1 43058U 17079D   23195.40753102  .00000033  00000+0  00000+0 0  9990
2 43058  55.5091 250.9264 0005186 266.4648  93.5671  1.70474636 34760
GSAT0221 (PRN E15)      
1 43564U 18060A   23192.96069015 -.00000092  00000+0  00000+0 0  9990
2 43564  57.2773  10.6633 0001420 286.3122  73.6932  1.70475826 30918
GSAT0222 (PRN E33)      
1 43565U 18060B   23189.66022050 -.00000086  00000+0  00000+0 0  9995
2 43565  57.2776  10.7539 0003345 274.1403  85.8416  1.70500305 30893
GSAT0219 (PRN E36)      
1 43566U 18060C   23193.98769039 -.00000093  00000+0  00000+0 0  9999
2 43566  57.2799  10.6387 0001003 332.4082  27.6070  1.70475929 30948
GSAT0220 (PRN E13)      
1 43567U 18060D   23193.03490861 -.00000092  00000+0  00000+0 0  9999
2 43567  57.2797  10.6641 0000841 291.4801  68.5319  1.70475727 30904
GSAT0223 (PRN E34)      
1 49809U 21116A   23194.60191014 -.00000094  00000+0  00000+0 0  9994
2 49809  57.2718  10.5181 0002619 147.3686 184.5909  1.70475940  9946
GSAT0224 (PRN E10)      
1 49810U 21116B   23194.17202174 -.00000093  00000+0  00000+0 0  9997
2 49810  57.2723  10.5279 0002404 129.7170  50.8903  1.70475943  9959
